[{"OBJECT_NAME":"LEMUR-2-DEMBITZ","OBJECT_ID":"2017-042T","EPOCH":"2026-03-09T11:23:53.232288","MEAN_MOTION":15.26947128,"ECCENTRICITY":0.00069617,"INCLINATION":97.3807,"RA_OF_ASC_NODE":250.9241,"ARG_OF_PERICENTER":17.1421,"MEAN_ANOMALY":343.0051,"EPHEMERIS_TYPE":0,"CLASSIFICATION_TYPE":"U","NORAD_CAT_ID":42842,"ELEMENT_SET_NO":999,"REV_AT_EPOCH":47311,"BSTAR":0.00076560825,"MEAN_MOTION_DOT":0.00020231,"MEAN_MOTION_DDOT":0},{"OBJECT_NAME":"STARLINK-33624","OBJECT_ID":"2025-035V","EPOCH":"2026-03-08T07:01:56.633376","MEAN_MOTION":15.27577311,"ECCENTRICITY":8.465e-5,"INCLINATION":42.9998,"RA_OF_ASC_NODE":151.7103,"ARG_OF_PERICENTER":237.5448,"MEAN_ANOMALY":122.5322,"EPHEMERIS_TYPE":0,"CLASSIFICATION_TYPE":"U","NORAD_CAT_ID":63071,"ELEMENT_SET_NO":999,"REV_AT_EPOCH":5944,"BSTAR":0.0010440688,"MEAN_MOTION_DOT":0.00028577,"MEAN_MOTION_DDOT":0}]
